SCD 1                   
1 22490U 93009B   26176.67220020  .00000377  00000+0  52016-4 0  9993
2 22490  24.9680 155.1842 0041706 227.5526 294.0303 14.46121573762348
TECHSAT 1B (GO-32)      
1 25397U 98043D   26176.84476045  .00000060  00000+0  46016-4 0  9996
2 25397  99.0071 169.8219 0001487 146.5659 213.5613 14.24429931452568
SCD 2                   
1 25504U 98060A   26176.87742550  .00000367  00000+0  51475-4 0  9990
2 25504  24.9966  18.5663 0016631 214.4412 274.0497 14.45528821461585
DLR-TUBSAT              
1 25757U 99029B   26176.56025405  .00000091  00000+0  34237-4 0  9996
2 25757  98.6696 172.3399 0013558 329.0322  31.0071 14.52428713434469
TERRA                   
1 25994U 99068A   26176.85054602  .00000347  00000+0  79594-4 0  9994
2 25994  97.9452 226.0532 0002263 164.1961 250.6888 14.61109283410870
MAROC-TUBSAT            
1 27004U 01056D   26176.47077963 -.00000015  00000+0  35394-4 0  9994
2 27004  99.8086 353.4865 0020528 120.7124 294.6321 13.70262749227327
AQUA                    
1 27424U 02022A   26176.88013772  .00000718  00000+0  15259-3 0  9993
2 27424  98.4280 146.3368 0000799  64.2987 347.4731 14.62170125284545
SHIYAN-1 (SY-1)         
1 28220U 04012A   26176.72964948  .00016464  00000+0  50303-3 0  9996
2 28220  97.8694 255.3537 0004834   2.8603 357.2665 15.33963904212403
AURA                    
1 28376U 04026A   26176.81887573  .00000712  00000+0  15391-3 0  9998
2 28376  98.3419 133.3437 0001169  82.0986 278.0347 14.61341007167479
IRS-P5 (CARTOSAT-1)     
1 28649U 05017A   26176.60102789  .00001428  00000+0  14955-3 0  9998
2 28649  97.5306 199.2838 0002390  69.6833 290.4643 14.91069651145077
SINAH 1                 
1 28893U 05043D   26176.80157146  .00000311  00000+0  68429-4 0  9993
2 28893  98.2870 311.1746 0013242 247.1781 112.8023 14.64162985101781
RESURS-DK 1             
1 29228U 06021A   26176.82700711  .00002326  00000+0  13656-3 0  9996
2 29228  69.9337 317.1885 0006753 287.8162  72.2267 15.13250041103888
ARIRANG-2 (KOMPSAT-2)   
1 29268U 06031A   26176.84438440  .00000600  00000+0  12105-3 0  9991
2 29268  97.8312   0.8725 0015684  49.6767  74.7141 14.64665722 62740
LAPAN-TUBSAT            
1 29709U 07001A   26176.87360325  .00000177  00000+0  26875-4 0  9997
2 29709  98.1344 176.2932 0012618 151.5482 208.6424 14.85955677 52440
HAIYANG-1B              
1 31113U 07010A   26176.81490771  .00000093  00000+0  50996-4 0  9990
2 31113  98.3498 158.3256 0013613 170.4406 189.7039 14.31028951  1875
COSMO-SKYMED 1          
1 31598U 07023A   26176.82373074  .00003152  00000+0  27812-3 0  9997
2 31598  97.8861   8.7522 0001832  91.2992 268.8440 14.97144700 31088
TERRASAR-X              
1 31698U 07026A   26175.56897117  .00001644  00000+0  81449-4 0  9991
2 31698  97.4447 183.1695 0001626  88.3572 271.7849 15.19150427 54344
WORLDVIEW-1 (WV-1)      
1 32060U 07041A   26176.82600561  .00006794  00000+0  28040-3 0  9995
2 32060  97.3880 296.4460 0001430 349.2427  10.8780 15.24354634 44197
YAOGAN-3                
1 32289U 07055A   26176.85290829  .00002367  00000+0  24620-3 0  9990
2 32289  97.8158 206.6455 0001926  81.0638 279.0798 14.90813491  7162
COSMO-SKYMED 2          
1 32376U 07059A   26176.80238656  .00000487  00000+0  67680-4 0  9991
2 32376  97.8888   0.2754 0001361  88.1574 271.9794 14.82152015  3284
RADARSAT-2              
1 32382U 07061A   26176.85414160  .00000038  00000+0  31596-4 0  9991
2 32382  98.5781 183.6626 0001310  83.7699 276.3633 14.29983179967192
CARTOSAT-2A             
1 32783U 08021A   26176.84016567  .00001088  00000+0  15292-3 0  9991
2 32783  97.7634 225.2537 0013360  83.9371 276.3363 14.79251506980086
HUANJING 1A (HJ-1A)     
1 33320U 08041A   26176.86443582  .00001586  00000+0  19594-3 0  9996
2 33320  97.6684 162.3668 0020540 108.0193 252.3262 14.84005978959694
HUANJING 1B (HJ-1B)     
1 33321U 08041B   26176.90492198  .00000390  00000+0  53350-4 0  9990
2 33321  97.6521 165.5513 0036813 152.4481 207.8695 14.83328179959709
GEOEYE 1                
1 33331U 08042A   26176.82763162  .00000404  00000+0  84755-4 0  9994
2 33331  98.1234 250.6494 0005045  48.2690 311.8944 14.64732782951419
THEOS                   
1 33396U 08049A   26176.84628907  .00000129  00000+0  80422-4 0  9992
2 33396  98.5572 233.8489 0001173  81.6531 278.4779 14.20134490919196
COSMO-SKYMED 3          
1 33412U 08054A   26176.90791602  .00004738  00000+0  32009-3 0  9994
2 33412  97.8275  35.6240 0014323 233.9330 126.0571 15.06998994958250
YAOGAN-4                
1 33446U 08061A   26176.80230669  .00000989  00000+0  12741-3 0  9994
2 33446  97.9307 110.2489 0015383  46.9056 313.3442 14.83215733946941
GOSAT (IBUKI)           
1 33492U 09002A   26176.79749028 -.00000079  00000+0 -54901-5 0  9991
2 33492  98.0902 287.7711 0001349  83.6653 276.4705 14.67538238932723
DEIMOS-1                
1 35681U 09041A   26176.86820667  .00000586  00000+0  93710-4 0  9994
2 35681  97.7411 333.7200 0002160 119.4823 240.6602 14.75245427908164
DUBAISAT-1              
1 35682U 09041B   26176.83935315  .00000824  00000+0  12954-3 0  9994
2 35682  98.0060 310.0026 0011317  48.7927 311.4256 14.75136041906370
