OBJECT_NAME,OBJECT_ID,EPOCH,MEAN_MOTION,ECCENTRICITY,INCLINATION,RA_OF_ASC_NODE,ARG_OF_PERICENTER,MEAN_ANOMALY,EPHEMERIS_TYPE,CLASSIFICATION_TYPE,NORAD_CAT_ID,ELEMENT_SET_NO,REV_AT_EPOCH,BSTAR,MEAN_MOTION_DOT,MEAN_MOTION_DDOT
SCD 1,1993-009B,2026-06-25T16:07:58.097280,14.46121573,.0041706,24.9680,155.1842,227.5526,294.0303,0,U,22490,999,76234,.52016E-4,.377E-5,0
TECHSAT 1B (GO-32),1998-043D,2026-06-25T20:16:27.302880,14.24429931,.0001487,99.0071,169.8219,146.5659,213.5613,0,U,25397,999,45256,.46016E-4,.6E-6,0
SCD 2,1998-060A,2026-06-25T21:03:29.563200,14.45528821,.0016631,24.9966,18.5663,214.4412,274.0497,0,U,25504,999,46158,.51475E-4,.367E-5,0
DLR-TUBSAT,1999-029B,2026-06-25T13:26:45.949920,14.52428713,.0013558,98.6696,172.3399,329.0322,31.0071,0,U,25757,999,43446,.34237E-4,.91E-6,0
TERRA,1999-068A,2026-06-25T20:24:47.176128,14.61109283,.0002263,97.9452,226.0532,164.1961,250.6888,0,U,25994,999,41087,.79594E-4,.347E-5,0
MAROC-TUBSAT,2001-056D,2026-06-25T11:17:55.360032,13.70262749,.0020528,99.8086,353.4865,120.7124,294.6321,0,U,27004,999,22732,.35394E-4,-.15E-6,0
AQUA,2002-022A,2026-06-25T21:07:23.899008,14.62170125,.0000799,98.4280,146.3368,64.2987,347.4731,0,U,27424,999,28454,.15259E-3,.718E-5,0
SHIYAN-1 (SY-1),2004-012A,2026-06-25T17:30:41.715072,15.33963904,.0004834,97.8694,255.3537,2.8603,357.2665,0,U,28220,999,21240,.50303E-3,.16464E-3,0
AURA,2004-026A,2026-06-25T19:39:10.863072,14.61341007,.0001169,98.3419,133.3437,82.0986,278.0347,0,U,28376,999,16747,.15391E-3,.712E-5,0
IRS-P5 (CARTOSAT-1),2005-017A,2026-06-25T14:25:28.809696,14.91069651,.000239,97.5306,199.2838,69.6833,290.4643,0,U,28649,999,14507,.14955E-3,.1428E-4,0
SINAH 1,2005-043D,2026-06-25T19:14:15.774144,14.64162985,.0013242,98.2870,311.1746,247.1781,112.8023,0,U,28893,999,10178,.68429E-4,.311E-5,0
RESURS-DK 1,2006-021A,2026-06-25T19:50:53.414304,15.13250041,.0006753,69.9337,317.1885,287.8162,72.2267,0,U,29228,999,10388,.13656E-3,.2326E-4,0
ARIRANG-2 (KOMPSAT-2),2006-031A,2026-06-25T20:15:54.812160,14.64665722,.0015684,97.8312,0.8725,49.6767,74.7141,0,U,29268,999,6274,.12105E-3,.6E-5,0
LAPAN-TUBSAT,2007-001A,2026-06-25T20:57:59.320800,14.85955677,.0012618,98.1344,176.2932,151.5482,208.6424,0,U,29709,999,5244,.26875E-4,.177E-5,0
HAIYANG-1B,2007-010A,2026-06-25T19:33:28.026144,14.31028951,.0013613,98.3498,158.3256,170.4406,189.7039,0,U,31113,999,187,.50996E-4,.93E-6,0
COSMO-SKYMED 1,2007-023A,2026-06-25T19:46:10.335936,14.97144700,.0001832,97.8861,8.7522,91.2992,268.8440,0,U,31598,999,3108,.27812E-3,.3152E-4,0
TERRASAR-X,2007-026A,2026-06-24T13:39:19.109088,15.19150427,.00016263,97.4447,183.1695,88.3572,271.7849,0,U,31698,999,5434,.81449017E-4,.1644E-4,0
WORLDVIEW-1 (WV-1),2007-041A,2026-06-25T19:49:26.884704,15.24354634,.000143,97.3880,296.4460,349.2427,10.8780,0,U,32060,999,4419,.2804E-3,.6794E-4,0
YAOGAN-3,2007-055A,2026-06-25T20:28:11.276256,14.90813491,.0001926,97.8158,206.6455,81.0638,279.0798,0,U,32289,999,716,.2462E-3,.2367E-4,0
COSMO-SKYMED 2,2007-059A,2026-06-25T19:15:26.198784,14.82152015,.0001361,97.8888,0.2754,88.1574,271.9794,0,U,32376,999,328,.6768E-4,.487E-5,0
RADARSAT-2,2007-061A,2026-06-25T20:29:57.834240,14.29983179,.000131,98.5781,183.6626,83.7699,276.3633,0,U,32382,999,96719,.31596E-4,.38E-6,0
CARTOSAT-2A,2008-021A,2026-06-25T20:09:50.313888,14.79251506,.001336,97.7634,225.2537,83.9371,276.3363,0,U,32783,999,98008,.15292E-3,.1088E-4,0
HUANJING 1A (HJ-1A),2008-041A,2026-06-25T20:44:47.254848,14.84005978,.002054,97.6684,162.3668,108.0193,252.3262,0,U,33320,999,95969,.19594E-3,.1586E-4,0
HUANJING 1B (HJ-1B),2008-041B,2026-06-25T21:43:05.259072,14.83328179,.0036813,97.6521,165.5513,152.4481,207.8695,0,U,33321,999,95970,.5335E-4,.39E-5,0
GEOEYE 1,2008-042A,2026-06-25T19:51:47.371968,14.64732782,.0005045,98.1234,250.6494,48.2690,311.8944,0,U,33331,999,95141,.84755E-4,.404E-5,0
THEOS,2008-049A,2026-06-25T20:18:39.375648,14.20134490,.0001173,98.5572,233.8489,81.6531,278.4779,0,U,33396,999,91919,.80422E-4,.129E-5,0
COSMO-SKYMED 3,2008-054A,2026-06-25T21:47:23.944128,15.06998994,.0014323,97.8275,35.6240,233.9330,126.0571,0,U,33412,999,95825,.32009E-3,.4738E-4,0
YAOGAN-4,2008-061A,2026-06-25T19:15:19.298016,14.83215733,.0015383,97.9307,110.2489,46.9056,313.3442,0,U,33446,999,94694,.12741E-3,.989E-5,0
GOSAT (IBUKI),2009-002A,2026-06-25T19:08:23.160192,14.67538238,.0001349,98.0902,287.7711,83.6653,276.4705,0,U,33492,999,93272,-.54901E-5,-.79E-6,0
DEIMOS-1,2009-041A,2026-06-25T20:50:13.056288,14.75245427,.000216,97.7411,333.7200,119.4823,240.6602,0,U,35681,999,90816,.9371E-4,.586E-5,0
DUBAISAT-1,2009-041B,2026-06-25T20:08:40.112160,14.75136041,.0011317,98.0060,310.0026,48.7927,311.4256,0,U,35682,999,90637,.12954E-3,.824E-5,0
